$$SOE
2461295.500000000, A.D. 2026-Sep-12 00:00:00.0000, 9.792102337931706E+07, 4.377138262877381E+08, -6.229147397834030E+07,
2461302.500000000, A.D. 2026-Sep-19 00:00:00.0000, 8.806832983402902E+07, 4.405972630525405E+08, -6.370384489387013E+07,
2461309.500000000, A.D. 2026-Sep-26 00:00:00.0000, 7.816980867866415E+07, 4.432518293683616E+08, -6.508311436664683E+07,
2461316.500000000, A.D. 2026-Oct-03 00:00:00.0000, 6.823085664977872E+07, 4.456776087272820E+08, -6.642878032480150E+07,
2461323.500000000, A.D. 2026-Oct-10 00:00:00.0000, 5.825682378093981E+07, 4.478748035322102E+08, -6.774036470741652E+07,
2461330.500000000, A.D. 2026-Oct-17 00:00:00.0000, 4.825301121356367E+07, 4.498437320577940E+08, -6.901741315347594E+07,
2461337.500000000, A.D. 2026-Oct-24 00:00:00.0000, 3.822466914661595E+07, 4.515848253309083E+08, -7.025949468661152E+07,
2461344.500000000, A.D. 2026-Oct-31 00:00:00.0000, 2.817699501876941E+07, 4.530986238699057E+08, -7.146620141154516E+07,
2461351.500000000, A.D. 2026-Nov-07 00:00:00.0000, 1.811513225681075E+07, 4.543857743624278E+08, -7.263714824867532E+07,
2461358.500000000, A.D. 2026-Nov-14 00:00:00.0000, 8.044169786241991E+06, 4.554470271751450E+08, -7.377197265431133E+07,
2461365.500000000, A.D. 2026-Nov-21 00:00:00.0000, -2.030859511091236E+06, 4.562832353823004E+08, -7.487033410620216E+07,
2461372.500000000, A.D. 2026-Nov-28 00:00:00.0000, -1.210498239384857E+07, 4.568953523060142E+08, -7.593191350877112E+07,
2461379.500000000, A.D. 2026-Dec-05 00:00:00.0000, -2.217328729937861E+07, 4.572844269132106E+08, -7.695641290340328E+07,
2461386.500000000, A.D. 2026-Dec-12 00:00:00.0000, -3.223092466383524E+07, 4.574516001840575E+08, -7.794355524550134E+07,
2461393.500000000, A.D. 2026-Dec-19 00:00:00.0000, -4.227310741620387E+07, 4.573981024601440E+08, -7.889308407495640E+07,
2461400.500000000, A.D. 2026-Dec-26 00:00:00.0000, -5.229511179480926E+07, 4.571252509057027E+08, -7.980476313799056E+07,
2461407.500000000, A.D. 2027-Jan-02 00:00:00.0000, -6.229227821695061E+07, 4.566344468935350E+08, -8.067837600196902E+07,
2461414.500000000, A.D. 2027-Jan-09 00:00:00.0000, -7.226001209072080E+07, 4.559271733386947E+08, -8.151372567331553E+07,
2461421.500000000, A.D. 2027-Jan-16 00:00:00.0000, -8.219378453947556E+07, 4.550049919910687E+08, -8.231063422209620E+07,
2461428.500000000, A.D. 2027-Jan-23 00:00:00.0000, -9.208913299892388E+07, 4.538695406488405E+08, -8.306894242162658E+07,
2461435.500000000, A.D. 2027-Jan-30 00:00:00.0000, -1.019416615053207E+08, 4.525225302461727E+08, -8.378850942501651E+07,
2461442.500000000, A.D. 2027-Feb-06 00:00:00.0000, -1.117470402564398E+08, 4.509657421561618E+08, -8.446921249064432E+07,
2461449.500000000, A.D. 2027-Feb-13 00:00:00.0000, -1.215010049119012E+08, 4.492010269303331E+08, -8.511094661578828E+07,
2461456.500000000, A.D. 2027-Feb-20 00:00:00.0000, -1.311993580012974E+08, 4.472303036850659E+08, -8.571362392735633E+07,
2461463.500000000, A.D. 2027-Feb-27 00:00:00.0000, -1.408379710479189E+08, 4.450555569197012E+08, -8.627717322021629E+07,
2461470.500000000, A.D. 2027-Mar-06 00:00:00.0000, -1.504127843959839E+08, 4.426788326879004E+08, -8.680153976293094E+07,
2461477.500000000, A.D. 2027-Mar-13 00:00:00.0000, -1.599198063465767E+08, 4.401022361734760E+08, -8.728668505796131E+07,
2461484.500000000, A.D. 2027-Mar-20 00:00:00.0000, -1.693551127347355E+08, 4.373279298363646E+08, -8.773258652163321E+07,
2461491.500000000, A.D. 2027-Mar-27 00:00:00.0000, -1.787148467489697E+08, 4.343581315789056E+08, -8.813923714740443E+07,
2461498.500000000, A.D. 2027-Apr-03 00:00:00.0000, -1.879952187938917E+08, 4.311951128839102E+08, -8.850664517514515E+07,
2461505.500000000, A.D. 2027-Apr-10 00:00:00.0000, -1.971925063382278E+08, 4.278411969469528E+08, -8.883483377041860E+07,
2461512.500000000, A.D. 2027-Apr-17 00:00:00.0000, -2.063030537294550E+08, 4.242987567879283E+08, -8.912384071718787E+07,
2461519.500000000, A.D. 2027-Apr-24 00:00:00.0000, -2.153232718990163E+08, 4.205702132789580E+08, -8.937371813646972E+07,
2461526.500000000, A.D. 2027-May-01 00:00:00.0000, -2.242496376615551E+08, 4.166580331155463E+08, -8.958453225625210E+07,
2461533.500000000, A.D. 2027-May-08 00:00:00.0000, -2.330786923040189E+08, 4.125647274784865E+08, -8.975636319985786E+07,
2461540.500000000, A.D. 2027-May-15 00:00:00.0000, -2.418070409649128E+08, 4.082928523397788E+08, -8.988930457805341E+07,
2461547.500000000, A.D. 2027-May-22 00:00:00.0000, -2.504313543695301E+08, 4.038450078209621E+08, -8.998346295363390E+07,
2461554.500000000, A.D. 2027-May-29 00:00:00.0000, -2.589483695663922E+08, 3.992238351330850E+08, -9.003895760543223E+07,
2461561.500000000, A.D. 2027-Jun-05 00:00:00.0000, -2.673548887836738E+08, 3.944320142278574E+08, -9.005592041666009E+07,
2461568.500000000, A.D. 2027-Jun-12 00:00:00.0000, -2.756477784165765E+08, 3.894722625919585E+08, -9.003449566884549E+07,
2461575.500000000, A.D. 2027-Jun-19 00:00:00.0000, -2.838239684785351E+08, 3.843473342490423E+08, -8.997483978753170E+07,
2461582.500000000, A.D. 2027-Jun-26 00:00:00.0000, -2.918804522386882E+08, 3.790600187067957E+08, -8.987712108645034E+07,
2461589.500000000, A.D. 2027-Jul-03 00:00:00.0000, -2.998142859156166E+08, 3.736131398560312E+08, -8.974151952138734E+07,
2461596.500000000, A.D. 2027-Jul-10 00:00:00.0000, -3.076225883926345E+08, 3.680095548294351E+08, -8.956822645626986E+07,
2461603.500000000, A.D. 2027-Jul-17 00:00:00.0000, -3.153025409202278E+08, 3.622521527801463E+08, -8.935744444786002E+07,
2461610.500000000, A.D. 2027-Jul-24 00:00:00.0000, -3.228513866508109E+08, 3.563438535164276E+08, -8.910938706836078E+07,
2461617.500000000, A.D. 2027-Jul-31 00:00:00.0000, -3.302664295955396E+08, 3.502876062268334E+08, -8.882427878409958E+07,
2461624.500000000, A.D. 2027-Aug-07 00:00:00.0000, -3.375450332049808E+08, 3.440863894461780E+08, -8.850235477734503E+07,
2461631.500000000, A.D. 2027-Aug-14 00:00:00.0000, -3.446846208760081E+08, 3.377432120078403E+08, -8.814386052069859E+07,
2461638.500000000, A.D. 2027-Aug-21 00:00:00.0000, -3.516826777668579E+08, 3.312611116168574E+08, -8.774905143517509E+07,
2461645.500000000, A.D. 2027-Aug-28 00:00:00.0000, -3.585367504892174E+08, 3.246431522433873E+08, -8.731819284707354E+07,
2461652.500000000, A.D. 2027-Sep-04 00:00:00.0000, -3.652444458614687E+08, 3.178924228357339E+08, -8.685155993077302E+07,
2461659.500000000, A.D. 2027-Sep-11 00:00:00.0000, -3.718034301218891E+08, 3.110120366913267E+08, -8.634943756469160E+07,
2461666.500000000, A.D. 2027-Sep-18 00:00:00.0000, -3.782114284704589E+08, 3.040051308357770E+08, -8.581212016664004E+07,
2461673.500000000, A.D. 2027-Sep-25 00:00:00.0000, -3.844662247113749E+08, 2.968748653322473E+08, -8.523991153634626E+07,
2461680.500000000, A.D. 2027-Oct-02 00:00:00.0000, -3.905656609218493E+08, 2.896244225482286E+08, -8.463312470998281E+07,
2461687.500000000, A.D. 2027-Oct-09 00:00:00.0000, -3.965076371251857E+08, 2.822570063744902E+08, -8.399208182916451E+07,
2461694.500000000, A.D. 2027-Oct-16 00:00:00.0000, -4.022901109053422E+08, 2.747758413403687E+08, -8.331711403462583E+07,
2461701.500000000, A.D. 2027-Oct-23 00:00:00.0000, -4.079110967034359E+08, 2.671841716185683E+08, -8.260856140873823E+07,
2461708.500000000, A.D. 2027-Oct-30 00:00:00.0000, -4.133686644218520E+08, 2.594852605284305E+08, -8.186677295116019E+07,
2461715.500000000, A.D. 2027-Nov-06 00:00:00.0000, -4.186609385003064E+08, 2.516823916643749E+08, -8.109210638866875E+07,
2461722.500000000, A.D. 2027-Nov-13 00:00:00.0000, -4.237860994508644E+08, 2.437788695727003E+08, -8.028492780707344E+07,
2461729.500000000, A.D. 2027-Nov-20 00:00:00.0000, -4.287423849501515E+08, 2.357780177907088E+08, -7.944561154985860E+07,
2461736.500000000, A.D. 2027-Nov-27 00:00:00.0000, -4.335280888702052E+08, 2.276831772105994E+08, -7.857454028871053E+07,
2461743.500000000, A.D. 2027-Dec-04 00:00:00.0000, -4.381415602725502E+08, 2.194977056797548E+08, -7.767210500538075E+07,
2461750.500000000, A.D. 2027-Dec-11 00:00:00.0000, -4.425812029176751E+08, 2.112249778726325E+08, -7.673870491338469E+07,
2461757.500000000, A.D. 2027-Dec-18 00:00:00.0000, -4.468454750155911E+08, 2.028683850945560E+08, -7.577474737233827E+07,
2461764.500000000, A.D. 2027-Dec-25 00:00:00.0000, -4.509328890657827E+08, 1.944313350142177E+08, -7.478064780869457E+07,
2461771.500000000, A.D. 2028-Jan-01 00:00:00.0000, -4.548420117455247E+08, 1.859172513382833E+08, -7.375682964511806E+07,
$$EOE